{
  "type": "FeatureCollection",
  "features": [
    {
      "type": "Feature",
      "properties": {
        "norad_id": 39160,
        "name": "VNREDSAT 1",
        "group": "resource",
        "lat": -39.632384338148306,
        "lon": -145.02449983114124,
        "alt_km": 684.5712950858378,
        "timestamp": "2025-12-12T07:43:20.160555+00:00",
        "meta_object_name": "VNREDSAT 1",
        "meta_object_id": "2013-021B",
        "meta_epoch": "2025-12-12T00:09:50.277888",
        "meta_mean_motion": 14.64921097,
        "meta_eccentricity": 0.00013228,
        "meta_inclination": 97.9372,
        "meta_ra_of_asc_node": 41.307,
        "meta_arg_of_pericenter": 78.5614,
        "meta_mean_anomaly": 281.5738,
        "meta_ephemeris_type": 0,
        "meta_classification_type": "U",
        "meta_norad_cat_id": 39160,
        "meta_element_set_no": 999,
        "meta_rev_at_epoch": 67288,
        "meta_bstar": 0.00022851852,
        "meta_mean_motion_dot": 1.177e-05,
        "meta_mean_motion_ddot": 0,
        "tle_line1": "1 39160U 13021B   25346.00683192  .00001177  00000+0  22852-3 0  9992",
        "tle_line2": "2 39160  97.9372  41.3070 0001322  78.5614 281.5738 14.64921097672880"
      },
      "geometry": {
        "type": "Point",
        "coordinates": [
          -145.02449983114124,
          -39.632384338148306
        ]
      }
    },
    {
      "type": "Feature",
      "properties": {
        "norad_id": 39227,
        "name": "ARIRANG-5 (KOMPSAT-5)",
        "group": "resource",
        "lat": -58.14631245484412,
        "lon": -21.80204506923275,
        "alt_km": 562.708718786097,
        "timestamp": "2025-12-12T07:43:20.160566+00:00",
        "meta_object_name": "ARIRANG-5 (KOMPSAT-5)",
        "meta_object_id": "2013-042A",
        "meta_epoch": "2025-12-12T00:16:43.669056",
        "meta_mean_motion": 15.04499922,
        "meta_eccentricity": 0.00036718,
        "meta_inclination": 97.6144,
        "meta_ra_of_asc_node": 170.326,
        "meta_arg_of_pericenter": 57.0165,
        "meta_mean_anomaly": 303.1414,
        "meta_ephemeris_type": 0,
        "meta_classification_type": "U",
        "meta_norad_cat_id": 39227,
        "meta_element_set_no": 999,
        "meta_rev_at_epoch": 67571,
        "meta_bstar": 0.00023717195,
        "meta_mean_motion_dot": 3.26e-05,
        "meta_mean_motion_ddot": 0,
        "tle_line1": "1 39227U 13042A   25346.01161654  .00003260  00000+0  23717-3 0  9990",
        "tle_line2": "2 39227  97.6144 170.3260 0003671  57.0165 303.1414 15.04499922675713"
      },
      "geometry": {
        "type": "Point",
        "coordinates": [
          -21.80204506923275,
          -58.14631245484412
        ]
      }
    },
    {
      "type": "Feature",
      "properties": {
        "norad_id": 39418,
        "name": "SKYSAT-A",
        "group": "resource",
        "lat": -60.53438173870321,
        "lon": -156.77725834012332,
        "alt_km": 524.2590379127232,
        "timestamp": "2025-12-12T07:43:20.160576+00:00",
        "meta_object_name": "SKYSAT-A",
        "meta_object_id": "2013-066C",
        "meta_epoch": "2025-12-11T22:42:47.738304",
        "meta_mean_motion": 15.11595688,
        "meta_eccentricity": 0.0020644,
        "meta_inclination": 97.4112,
        "meta_ra_of_asc_node": 36.1788,
        "meta_arg_of_pericenter": 239.3533,
        "meta_mean_anomaly": 120.5663,
        "meta_ephemeris_type": 0,
        "meta_classification_type": "U",
        "meta_norad_cat_id": 39418,
        "meta_element_set_no": 999,
        "meta_rev_at_epoch": 66018,
        "meta_bstar": 0.00035303578,
        "meta_mean_motion_dot": 5.961e-05,
        "meta_mean_motion_ddot": 0,
        "tle_line1": "1 39418U 13066C   25345.94638586  .00005961  00000+0  35304-3 0  9997",
        "tle_line2": "2 39418  97.4112  36.1788 0020644 239.3533 120.5663 15.11595688660181"
      },
      "geometry": {
        "type": "Point",
        "coordinates": [
          -156.77725834012332,
          -60.53438173870321
        ]
      }
    },
    {
      "type": "Feature",
      "properties": {
        "norad_id": 39419,
        "name": "DUBAISAT-2",
        "group": "resource",
        "lat": 28.019214668553854,
        "lon": -27.2484762028959,
        "alt_km": 537.0219970868693,
        "timestamp": "2025-12-12T07:43:20.160587+00:00",
        "meta_object_name": "DUBAISAT-2",
        "meta_object_id": "2013-066D",
        "meta_epoch": "2025-12-11T23:38:12.268608",
        "meta_mean_motion": 15.08351031,
        "meta_eccentricity": 0.00107458,
        "meta_inclination": 97.4456,
        "meta_ra_of_asc_node": 336.4155,
        "meta_arg_of_pericenter": 323.739,
        "meta_mean_anomaly": 36.3109,
        "meta_ephemeris_type": 0,
        "meta_classification_type": "U",
        "meta_norad_cat_id": 39419,
        "meta_element_set_no": 999,
        "meta_rev_at_epoch": 65815,
        "meta_bstar": 0.00061444542,
        "meta_mean_motion_dot": 9.5e-05,
        "meta_mean_motion_ddot": 0,
        "tle_line1": "1 39419U 13066D   25345.98486422  .00009500  00000+0  61445-3 0  9990",
        "tle_line2": "2 39419  97.4456 336.4155 0010745 323.7390  36.3109 15.08351031658158"
      },
      "geometry": {
        "type": "Point",
        "coordinates": [
          -27.2484762028959,
          28.019214668553854
        ]
      }
    },
    {
      "type": "Feature",
      "properties": {
        "norad_id": 39574,
        "name": "GPM-CORE",
        "group": "resource",
        "lat": 59.27279060671019,
        "lon": -17.73372446297706,
        "alt_km": 431.1043216116741,
        "timestamp": "2025-12-12T07:43:20.160597+00:00",
        "meta_object_name": "GPM-CORE",
        "meta_object_id": "2014-009C",
        "meta_epoch": "2025-12-11T23:29:01.555872",
        "meta_mean_motion": 15.44445642,
        "meta_eccentricity": 0.00098528,
        "meta_inclination": 64.9736,
        "meta_ra_of_asc_node": 215.2289,
        "meta_arg_of_pericenter": 245.0091,
        "meta_mean_anomaly": 115.0027,
        "meta_ephemeris_type": 0,
        "meta_classification_type": "U",
        "meta_norad_cat_id": 39574,
        "meta_element_set_no": 999,
        "meta_rev_at_epoch": 66889,
        "meta_bstar": 0.00025562842,
        "meta_mean_motion_dot": 0.00011679,
        "meta_mean_motion_ddot": 0,
        "tle_line1": "1 39574U 14009C   25345.97849023  .00011679  00000+0  25563-3 0  9990",
        "tle_line2": "2 39574  64.9736 215.2289 0009852 245.0091 115.0027 15.44445642668891"
      },
      "geometry": {
        "type": "Point",
        "coordinates": [
          -17.73372446297706,
          59.27279060671019
        ]
      }
    },
    {
      "type": "Feature",
      "properties": {
        "norad_id": 39634,
        "name": "SENTINEL-1A",
        "group": "resource",
        "lat": 81.80280540081718,
        "lon": -95.40657259335885,
        "alt_km": 687.4264045284681,
        "timestamp": "2025-12-12T07:43:20.160607+00:00",
        "meta_object_name": "SENTINEL-1A",
        "meta_object_id": "2014-016A",
        "meta_epoch": "2025-12-12T00:43:50.072160",
        "meta_mean_motion": 14.59200377,
        "meta_eccentricity": 0.00012303,
        "meta_inclination": 98.1806,
        "meta_ra_of_asc_node": 351.2819,
        "meta_arg_of_pericenter": 83.7804,
        "meta_mean_anomaly": 276.3535,
        "meta_ephemeris_type": 0,
        "meta_classification_type": "U",
        "meta_norad_cat_id": 39634,
        "meta_element_set_no": 999,
        "meta_rev_at_epoch": 62272,
        "meta_bstar": 9.4194304e-05,
        "meta_mean_motion_dot": 3.98e-06,
        "meta_mean_motion_ddot": 0,
        "tle_line1": "1 39634U 14016A   25346.03044065  .00000398  00000+0  94194-4 0  9999",
        "tle_line2": "2 39634  98.1806 351.2819 0001230  83.7804 276.3535 14.59200377622722"
      },
      "geometry": {
        "type": "Point",
        "coordinates": [
          -95.40657259335885,
          81.80280540081718
        ]
      }
    },
    {
      "type": "Feature",
      "properties": {
        "norad_id": 39731,
        "name": "KAZEOSAT 1",
        "group": "resource",
        "lat": 81.64996504979294,
        "lon": -30.568673839971993,
        "alt_km": 743.4366491820128,
        "timestamp": "2025-12-12T07:43:20.160617+00:00",
        "meta_object_name": "KAZEOSAT 1",
        "meta_object_id": "2014-024A",
        "meta_epoch": "2025-12-12T00:38:46.872960",
        "meta_mean_motion": 14.42061784,
        "meta_eccentricity": 0.00011134,
        "meta_inclination": 98.3429,
        "meta_ra_of_asc_node": 57.9497,
        "meta_arg_of_pericenter": 94.1883,
        "meta_mean_anomaly": 265.9434,
        "meta_ephemeris_type": 0,
        "meta_classification_type": "U",
        "meta_norad_cat_id": 39731,
        "meta_element_set_no": 999,
        "meta_rev_at_epoch": 61158,
        "meta_bstar": 0.00012654729,
        "meta_mean_motion_dot": 3.73e-06,
        "meta_mean_motion_ddot": 0,
        "tle_line1": "1 39731U 14024A   25346.02693140  .00000373  00000+0  12655-3 0  9993",
        "tle_line2": "2 39731  98.3429  57.9497 0001113  94.1883 265.9434 14.42061784611581"
      },
      "geometry": {
        "type": "Point",
        "coordinates": [
          -30.568673839971993,
          81.64996504979294
        ]
      }
    }
  ]
}